{"type": "FeatureCollection", "features": [ {"type": "Feature", "properties": {"norad_id": 54234, "name": "NOAA 21 (JPSS-2)", "group": "weather", "lat": 73.34148808847432, "lon": -95.65108713453871, "alt_km": 819.3635200350955, "timestamp": "2025-12-25T03:55:55.949021+00:00", "meta": {"OBJECT_NAME": "NOAA 21 (JPSS-2)", "OBJECT_ID": "2022-150A", "EPOCH": "2025-12-24T19:07:06.284928", "MEAN_MOTION": 14.19527337, "ECCENTRICITY": 0.0001668, "INCLINATION": 98.7478, "RA_OF_ASC_NODE": 294.9552, "ARG_OF_PERICENTER": 13.1326, "MEAN_ANOMALY": 346.9893, "EPHEMERIS_TYPE": 0, "CLASSIFICATION_TYPE": "U", "NORAD_CAT_ID": 54234, "ELEMENT_SET_NO": 999, "REV_AT_EPOCH": 16180, "BSTAR": 6.6957e-05, "MEAN_MOTION_DOT": 9.7e-07, "MEAN_MOTION_DDOT": 0}, "tle": {"line1": "1 54234U 22150A   25358.79660052  .00000097  00000+0  66957-4 0  9998", "line2": "2 54234  98.7478 294.9552 0001668  13.1326 346.9893 14.19527337161806"}}, "geometry": {"type": "Point", "coordinates": [-95.65108713453871, 73.34148808847432]}}, {"type": "Feature", "properties": {"norad_id": 54743, "name": "METEOSAT-12 (MTG-I1)", "group": "weather", "lat": 0.5718320816858966, "lon": 152.56814473763302, "alt_km": 35789.01959843118, "timestamp": "2025-12-25T03:55:55.949082+00:00", "meta": {"OBJECT_NAME": "METEOSAT-12 (MTG-I1)", "OBJECT_ID": "2022-170C", "EPOCH": "2025-12-24T14:48:38.736000", "MEAN_MOTION": 1.0027086, "ECCENTRICITY": 0.0001609, "INCLINATION": 0.6988, "RA_OF_ASC_NODE": 25.5659, "ARG_OF_PERICENTER": 240.955, "MEAN_ANOMALY": 48.7094, "EPHEMERIS_TYPE": 0, "CLASSIFICATION_TYPE": "U", "NORAD_CAT_ID": 54743, "ELEMENT_SET_NO": 999, "REV_AT_EPOCH": 1122, "BSTAR": 0, "MEAN_MOTION_DOT": 1.3e-07, "MEAN_MOTION_DDOT": 0}, "tle": {"line1": "1 54743U 22170C   25358.61711500  .00000013  00000+0  00000+0 0  9991", "line2": "2 54743   0.6988  25.5659 0001609 240.9550  48.7094  1.00270860 11221"}}, "geometry": {"type": "Point", "coordinates": [152.56814473763302, 0.5718320816858966]}}, {"type": "Feature", "properties": {"norad_id": 55973, "name": "TIANMU-1 03", "group": "weather", "lat": 29.74271267933482, "lon": 157.84152128584125, "alt_km": 438.3500208844034, "timestamp": "2025-12-25T03:55:55.949098+00:00", "meta": {"OBJECT_NAME": "TIANMU-1 03", "OBJECT_ID": "2023-039A", "EPOCH": "2025-12-24T21:34:11.261280", "MEAN_MOTION": 15.41272816, "ECCENTRICITY": 0.0003811, "INCLINATION": 97.5114, "RA_OF_ASC_NODE": 161.8927, "ARG_OF_PERICENTER": 25.535, "MEAN_ANOMALY": 334.6084, "EPHEMERIS_TYPE": 0, "CLASSIFICATION_TYPE": "U", "NORAD_CAT_ID": 55973, "ELEMENT_SET_NO": 999, "REV_AT_EPOCH": 15393, "BSTAR": 0.00038476, "MEAN_MOTION_DOT": 0.00015938, "MEAN_MOTION_DDOT": 0}, "tle": {"line1": "1 55973U 23039A   25358.89874145  .00015938  00000+0  38476-3 0  9991", "line2": "2 55973  97.5114 161.8927 0003811  25.5350 334.6084 15.41272816153931"}}, "geometry": {"type": "Point", "coordinates": [157.84152128584125, 29.74271267933482]}}, {"type": "Feature", "properties": {"norad_id": 55974, "name": "TIANMU-1 04", "group": "weather", "lat": 20.391608982732702, "lon": -15.839860054668494, "alt_km": 443.79325408208933, "timestamp": "2025-12-25T03:55:55.949110+00:00", "meta": {"OBJECT_NAME": "TIANMU-1 04", "OBJECT_ID": "2023-039B", "EPOCH": "2025-12-24T21:00:44.313696", "MEAN_MOTION": 15.4161587, "ECCENTRICITY": 0.0004418, "INCLINATION": 97.5046, "RA_OF_ASC_NODE": 161.0549, "ARG_OF_PERICENTER": 18.7494, "MEAN_ANOMALY": 341.3914, "EPHEMERIS_TYPE": 0, "CLASSIFICATION_TYPE": "U", "NORAD_CAT_ID": 55974, "ELEMENT_SET_NO": 999, "REV_AT_EPOCH": 15393, "BSTAR": 0.00039462, "MEAN_MOTION_DOT": 0.00016539, "MEAN_MOTION_DDOT": 0}, "tle": {"line1": "1 55974U 23039B   25358.87551289  .00016539  00000+0  39462-3 0  9995", "line2": "2 55974  97.5046 161.0549 0004418  18.7494 341.3914 15.41615870153933"}}, "geometry": {"type": "Point", "coordinates": [-15.839860054668494, 20.391608982732702]}}, {"type": "Feature", "properties": {"norad_id": 55975, "name": "TIANMU-1 05", "group": "weather", "lat": 5.715060696046237, "lon": -17.399449165934254, "alt_km": 446.54977335415424, "timestamp": "2025-12-25T03:55:55.949121+00:00", "meta": {"OBJECT_NAME": "TIANMU-1 05", "OBJECT_ID": "2023-039C", "EPOCH": "2025-12-24T19:23:18.177792", "MEAN_MOTION": 15.41227182, "ECCENTRICITY": 0.0003958, "INCLINATION": 97.5093, "RA_OF_ASC_NODE": 161.4782, "ARG_OF_PERICENTER": 44.7635, "MEAN_ANOMALY": 315.393, "EPHEMERIS_TYPE": 0, "CLASSIFICATION_TYPE": "U", "NORAD_CAT_ID": 55975, "ELEMENT_SET_NO": 999, "REV_AT_EPOCH": 15390, "BSTAR": 0.00040226, "MEAN_MOTION_DOT": 0.00016643, "MEAN_MOTION_DDOT": 0}, "tle": {"line1": "1 55975U 23039C   25358.80784928  .00016643  00000+0  40226-3 0  9993", "line2": "2 55975  97.5093 161.4782 0003958  44.7635 315.3930 15.41227182153904"}}, "geometry": {"type": "Point", "coordinates": [-17.399449165934254, 5.715060696046237]}}, {"type": "Feature", "properties": {"norad_id": 55976, "name": "TIANMU-1 06", "group": "weather", "lat": 30.03079397453616, "lon": -13.306619180226155, "alt_km": 440.8026151621607, "timestamp": "2025-12-25T03:55:55.949132+00:00", "meta": {"OBJECT_NAME": "TIANMU-1 06", "OBJECT_ID": "2023-039D", "EPOCH": "2025-12-24T19:29:49.193952", "MEAN_MOTION": 15.41664797, "ECCENTRICITY": 0.000421, "INCLINATION": 97.5104, "RA_OF_ASC_NODE": 161.9579, "ARG_OF_PERICENTER": 38.85, "MEAN_ANOMALY": 321.3048, "EPHEMERIS_TYPE": 0, "CLASSIFICATION_TYPE": "U", "NORAD_CAT_ID": 55976, "ELEMENT_SET_NO": 999, "REV_AT_EPOCH": 15392, "BSTAR": 0.00039575, "MEAN_MOTION_DOT": 0.00016613, "MEAN_MOTION_DDOT": 0}, "tle": {"line1": "1 55976U 23039D   25358.81237493  .00016613  00000+0  39575-3 0  9997", "line2": "2 55976  97.5104 161.9579 0004210  38.8500 321.3048 15.41664797153920"}}, "geometry": {"type": "Point", "coordinates": [-13.306619180226155, 30.03079397453616]}}, {"type": "Feature", "properties": {"norad_id": 56232, "name": "FENGYUN 3G", "group": "weather", "lat": 17.1148356355287, "lon": -31.664070402387527, "alt_km": 410.6062829981165, "timestamp": "2025-12-25T03:55:55.949142+00:00", "meta": {"OBJECT_NAME": "FENGYUN 3G", "OBJECT_ID": "2023-055A", "EPOCH": "2025-12-24T21:04:35.026752", "MEAN_MOTION": 15.520314, "ECCENTRICITY": 0.0003937, "INCLINATION": 49.9926, "RA_OF_ASC_NODE": 164.7962, "ARG_OF_PERICENTER": 287.9104, "MEAN_ANOMALY": 72.1433, "EPHEMERIS_TYPE": 0, "CLASSIFICATION_TYPE": "U", "NORAD_CAT_ID": 56232, "ELEMENT_SET_NO": 999, "REV_AT_EPOCH": 15291, "BSTAR": 0.00047596, "MEAN_MOTION_DOT": 0.00028895, "MEAN_MOTION_DDOT": 0}, "tle": {"line1": "1 56232U 23055A   25358.87818318  .00028895  00000+0  47596-3 0  9995", "line2": "2 56232  49.9926 164.7962 0003937 287.9104  72.1433 15.52031400152916"}}, "geometry": {"type": "Point", "coordinates": [-31.664070402387527, 17.1148356355287]}}, {"type": "Feature", "properties": {"norad_id": 57166, "name": "METEOR-M2 3", "group": "weather", "lat": -3.3412340882274822, "lon": -128.02319756858327, "alt_km": 817.0769352243524, "timestamp": "2025-12-25T03:55:55.949157+00:00", "meta": {"OBJECT_NAME": "METEOR-M2 3", "OBJECT_ID": "2023-091A", "EPOCH": "2025-12-24T20:19:43.964832", "MEAN_MOTION": 14.24027475, "ECCENTRICITY": 0.000326, "INCLINATION": 98.6362, "RA_OF_ASC_NODE": 52.174, "ARG_OF_PERICENTER": 331.1283, "MEAN_ANOMALY": 28.9715, "EPHEMERIS_TYPE": 0, "CLASSIFICATION_TYPE": "U", "NORAD_CAT_ID": 57166, "ELEMENT_SET_NO": 999, "REV_AT_EPOCH": 12970, "BSTAR": 1.9636e-05, "MEAN_MOTION_DOT": 2e-08, "MEAN_MOTION_DDOT": 0}, "tle": {"line1": "1 57166U 23091A   25358.84703663  .00000002  00000+0  19636-4 0  9990", "line2": "2 57166  98.6362  52.1740 0003260 331.1283  28.9715 14.24027475129709"}}, "geometry": {"type": "Point", "coordinates": [-128.02319756858327, -3.3412340882274822]}}, {"type": "Feature", "properties": {"norad_id": 57399, "name": "TIANMU-1 07", "group": "weather", "lat": -20.23327923632837, "lon": 51.44240050569982, "alt_km": 485.15748724816603, "timestamp": "2025-12-25T03:55:55.949168+00:00", "meta": {"OBJECT_NAME": "TIANMU-1 07", "OBJECT_ID": "2023-101A", "EPOCH": "2025-12-24T20:09:50.484096", "MEAN_MOTION": 15.28239538, "ECCENTRICITY": 0.0005038, "INCLINATION": 97.2856, "RA_OF_ASC_NODE": 48.423, "ARG_OF_PERICENTER": 50.3784, "MEAN_ANOMALY": 309.79, "EPHEMERIS_TYPE": 0, "CLASSIFICATION_TYPE": "U", "NORAD_CAT_ID": 57399, "ELEMENT_SET_NO": 999, "REV_AT_EPOCH": 13500, "BSTAR": 0.00028537, "MEAN_MOTION_DOT": 7.783e-05, "MEAN_MOTION_DDOT": 0}, "tle": {"line1": "1 57399U 23101A   25358.84016764  .00007783  00000+0  28537-3 0  9991", "line2": "2 57399  97.2856  48.4230 0005038  50.3784 309.7900 15.28239538135009"}}, "geometry": {"type": "Point", "coordinates": [51.44240050569982, -20.23327923632837]}}, {"type": "Feature", "properties": {"norad_id": 57400, "name": "TIANMU-1 08", "group": "weather", "lat": 18.92340874909108, "lon": -128.9512054212228, "alt_km": 483.26123781869137, "timestamp": "2025-12-25T03:55:55.949196+00:00", "meta": {"OBJECT_NAME": "TIANMU-1 08", "OBJECT_ID": "2023-101B", "EPOCH": "2025-12-24T20:56:43.954944", "MEAN_MOTION": 15.28222165, "ECCENTRICITY": 0.0006955, "INCLINATION": 97.2844, "RA_OF_ASC_NODE": 48.2507, "ARG_OF_PERICENTER": 49.5652, "MEAN_ANOMALY": 310.6193, "EPHEMERIS_TYPE": 0, "CLASSIFICATION_TYPE": "U", "NORAD_CAT_ID": 57400, "ELEMENT_SET_NO": 999, "REV_AT_EPOCH": 13500, "BSTAR": 0.0002812, "MEAN_MOTION_DOT": 7.666e-05, "MEAN_MOTION_DDOT": 0}, "tle": {"line1": "1 57400U 23101B   25358.87273096  .00007666  00000+0  28120-3 0  9998", "line2": "2 57400  97.2844  48.2507 0006955  49.5652 310.6193 15.28222165135000"}}, "geometry": {"type": "Point", "coordinates": [-128.9512054212228, 18.92340874909108]}}]}